[{"OBJECT_NAME":"YUNHAI-2 01B","OBJECT_ID":"2018-112B","EPOCH":"2026-03-09T18:01:16.468320","MEAN_MOTION":14.28967374,"ECCENTRICITY":0.00050306,"INCLINATION":50.0104,"RA_OF_ASC_NODE":169.9221,"ARG_OF_PERICENTER":231.5656,"MEAN_ANOMALY":128.4808,"EPHEMERIS_TYPE":0,"CLASSIFICATION_TYPE":"U","NORAD_CAT_ID":43910,"ELEMENT_SET_NO":999,"REV_AT_EPOCH":37602,"BSTAR":7.0397417e-5,"MEAN_MOTION_DOT":1.8e-7,"MEAN_MOTION_DDOT":0},{"OBJECT_NAME":"THOR AGENA D R\/B","OBJECT_ID":"1964-031C","EPOCH":"2026-03-09T17:28:35.182272","MEAN_MOTION":14.28465337,"ECCENTRICITY":0.00110399,"INCLINATION":99.8131,"RA_OF_ASC_NODE":6.7211,"ARG_OF_PERICENTER":216.0342,"MEAN_ANOMALY":144.0092,"EPHEMERIS_TYPE":0,"CLASSIFICATION_TYPE":"U","NORAD_CAT_ID":815,"ELEMENT_SET_NO":999,"REV_AT_EPOCH":20680,"BSTAR":0.00012001937,"MEAN_MOTION_DOT":2.46e-6,"MEAN_MOTION_DDOT":0}]
